0 OPS 9348 (IDSCS 27)
1 03291U 68050H   13279.99093779 -.00000108  00000-0  10000-3 0  9375
2 03291 002.3073 306.9479 0083651 147.4062 212.5573 01.06767414176530
0 OPS 9348 (IDSCS 27)
1 03291U 68050H   13283.73750704 -.00000092  00000-0  10000-3 0  9383
2 03291 002.3057 306.9295 0083790 147.4090 212.6415 01.06767020176576
0 OPS 9348 (IDSCS 27)
1 03291U 68050H   13283.73906862  .00000000  00000-0  10000-3 0  9390
2 03291 002.3129 307.4712 0083627 147.0188 213.0822 01.06764025176578
0 OPS 9348 (IDSCS 27)
1 03291U 68050H   13285.61106234 -.00000153  00000-0  10000-3 0  9394
2 03291 002.3027 307.0662 0083864 147.1954 212.8591 01.06767965176598
0 OPS 9348 (IDSCS 27)
1 03291U 68050H   13287.48412147 -.00000131  00000-0  10000-3 0  9402
2 03291 002.3028 307.0358 0083220 147.6745 212.3536 01.06767419176611
0 OPS 9348 (IDSCS 27)
1 03291U 68050H   13292.16697715 -.00000117  00000-0  10000-3 0  9414
2 03291 002.2996 307.0509 0082958 147.8195 212.1348 01.06767346176663
